{
  "norad_id": 59761,
  "name": "STARLINK-11117 [DTC]",
  "history": [
    {
      "epoch": "2026-03-28T18:45:51.074496Z",
      "apogee_km": 360.86191364155275,
      "perigee_km": 358.56471095607776,
      "latitude_deg": -1.274623939705711e-07,
      "longitude_deg": 4.3624358327016,
      "height_km": 360.2794969184515,
      "semi_major_axis_km": 6737.850312298815,
      "eccentricity": 0.00017047,
      "inclination_deg": 53.1592,
      "raan_deg": 112.0226,
      "arg_perigee_deg": 72.4331,
      "mean_anomaly_deg": 287.6873,
      "mean_motion_rev_day": 15.69714696
    }
  ]
}